0 PLEIADES 1B
1 39019U 12068A   13296.17499785  .00000369  00000-0  89137-4 0   463
2 39019 098.1880 009.7016 0001296 077.1401 282.9956 14.58561249 47400
